start=new Date('2022-02-22T00:00:00.000Z').valueOf();
sats=[{"RCS_SIZE":"LARGE","MEAN_MOTION":"15.06397011","PERIOD":"95.592","EPOCH":"2022-02-21T21:28:17.405760","FILE":"3312023","INCLINATION":"53.0556","MEAN_ELEMENT_THEORY":"SGP4","MEAN_MOTION_DOT":"-0.00000127","RA_OF_ASC_NODE":"266.2055","TLE_LINE2":"2 48639  53.0556 266.2055 0001440  75.2520 284.8629 15.06397011 41199","COUNTRY_CODE":"US","CENTER_NAME":"EARTH","MEAN_ANOMALY":"284.8629","OBJECT_ID":"2021-044B","TIME_SYSTEM":"UTC","SEMIMAJOR_AXIS":"6925.358","REV_AT_EPOCH":"4119","OBJECT_NAME":"STARLINK-2739","LAUNCH_DATE":"2021-05-26","ELEMENT_SET_NO":"999","GP_ID":"196574353","OBJECT_TYPE":"PAYLOAD","REF_FRAME":"TEME","PERIAPSIS":"546.225","MEAN_MOTION_DDOT":"0.0000000000000","ECCENTRICITY":"0.00014400","APOAPSIS":"548.220","EPHEMERIS_TYPE":"0","CLASSIFICATION_TYPE":"U","BSTAR":"0.00001035900000","DECAY_DATE":null,"NORAD_CAT_ID":"48639","SITE":"AFETR","TLE_LINE1":"1 48639U 21044B   22052.89464590 -.00000127  00000-0  10359-4 0  9990","ARG_OF_PERICENTER":"75.2520"},{"PERIAPSIS":"546.155","OBJECT_TYPE":"PAYLOAD","REF_FRAME":"TEME","ECCENTRICITY":"0.00015360","MEAN_MOTION_DDOT":"0.0000000000000","BSTAR":"0.00002761600000","CLASSIFICATION_TYPE":"U","DECAY_DATE":null,"NORAD_CAT_ID":"48640","APOAPSIS":"548.283","EPHEMERIS_TYPE":"0","ARG_OF_PERICENTER":"74.8757","SITE":"AFETR","TLE_LINE1":"1 48640U 21044C   22052.86146399  .00000130  00000-0  27616-4 0  9990","OBJECT_ID":"2021-044C","TIME_SYSTEM":"UTC","SEMIMAJOR_AXIS":"6925.354","MEAN_ANOMALY":"285.2402","ELEMENT_SET_NO":"999","OBJECT_NAME":"STARLINK-2736","REV_AT_EPOCH":"4118","LAUNCH_DATE":"2021-05-26","GP_ID":"196574608","MEAN_ELEMENT_THEORY":"SGP4","FILE":"3312023","INCLINATION":"53.0540","MEAN_MOTION_DOT":"0.00000130","RA_OF_ASC_NODE":"266.3632","COUNTRY_CODE":"US","CENTER_NAME":"EARTH","TLE_LINE2":"2 48640  53.0540 266.3632 0001536  74.8757 285.2402 15.06398243 41180","RCS_SIZE":"LARGE","MEAN_MOTION":"15.06398243","PERIOD":"95.592","EPOCH":"2022-02-21T20:40:30.488736"},{"ECCENTRICITY":"0.00016660","MEAN_MOTION_DDOT":"0.0000000000000","PERIAPSIS":"546.083","REF_FRAME":"TEME","OBJECT_TYPE":"PAYLOAD","ARG_OF_PERICENTER":"75.7571","TLE_LINE1":"1 48641U 21044D   22052.90065581 -.00000690  00000-0 -27448-4 0  9995","SITE":"AFETR","BSTAR":"-0.00002744800000","CLASSIFICATION_TYPE":"U","DECAY_DATE":null,"NORAD_CAT_ID":"48641","APOAPSIS":"548.391","EPHEMERIS_TYPE":"0","ELEMENT_SET_NO":"999","OBJECT_NAME":"STARLINK-2754","REV_AT_EPOCH":"4112","LAUNCH_DATE":"2021-05-26","OBJECT_ID":"2021-044D","TIME_SYSTEM":"UTC","SEMIMAJOR_AXIS":"6925.372","MEAN_ANOMALY":"284.3603","GP_ID":"196573355","MEAN_MOTION_DOT":"-0.00000690","RA_OF_ASC_NODE":"271.1873","MEAN_ELEMENT_THEORY":"SGP4","FILE":"3312023","INCLINATION":"53.0554","COUNTRY_CODE":"US","CENTER_NAME":"EARTH","TLE_LINE2":"2 48641  53.0554 271.1873 0001666  75.7571 284.3603 15.06392300 41120","RCS_SIZE":"LARGE","MEAN_MOTION":"15.06392300","PERIOD":"95.593","EPOCH":"2022-02-21T21:36:56.661984"},{"ARG_OF_PERICENTER":"76.9741","SITE":"AFETR","TLE_LINE1":"1 48642U 21044E   22052.91445353  .00000560  00000-0  56485-4 0  9993","BSTAR":"0.00005648500000","CLASSIFICATION_TYPE":"U","DECAY_DATE":null,"NORAD_CAT_ID":"48642","EPHEMERIS_TYPE":"0","APOAPSIS":"548.253","ECCENTRICITY":"0.00014950","MEAN_MOTION_DDOT":"0.0000000000000","PERIAPSIS":"546.182","REF_FRAME":"TEME","OBJECT_TYPE":"PAYLOAD","GP_ID":"196573604","ELEMENT_SET_NO":"999","OBJECT_NAME":"STARLINK-2646","REV_AT_EPOCH":"4112","LAUNCH_DATE":"2021-05-26","TIME_SYSTEM":"UTC","OBJECT_ID":"2021-044E","SEMIMAJOR_AXIS":"6925.353","MEAN_ANOMALY":"283.1415","COUNTRY_CODE":"US","CENTER_NAME":"EARTH","TLE_LINE2":"2 48642  53.0565 271.1200 0001495  76.9741 283.1415 15.06398671 41124","MEAN_MOTION_DOT":"0.00000560","RA_OF_ASC_NODE":"271.1200","MEAN_ELEMENT_THEORY":"SGP4","FILE":"3312023","INCLINATION":"53.0565","MEAN_MOTION":"15.06398671","PERIOD":"95.592","EPOCH":"2022-02-21T21:56:48.784992","RCS_SIZE":"LARGE"},{"INCLINATION":"53.0547","FILE":"3312023","MEAN_ELEMENT_THEORY":"SGP4","RA_OF_ASC_NODE":"271.1939","MEAN_MOTION_DOT":"0.00000153","TLE_LINE2":"2 48643  53.0547 271.1939 0001419  76.0731 284.0416 15.06393075 41124","COUNTRY_CODE":"US","CENTER_NAME":"EARTH","RCS_SIZE":"LARGE","PERIOD":"95.593","EPOCH":"2022-02-21T21:31:37.656768","MEAN_MOTION":"15.06393075","REF_FRAME":"TEME","OBJECT_TYPE":"PAYLOAD","PERIAPSIS":"546.252","MEAN_MOTION_DDOT":"0.0000000000000","ECCENTRICITY":"0.00014190","EPHEMERIS_TYPE":"0","APOAPSIS":"548.217","DECAY_DATE":null,"NORAD_CAT_ID":"48643","BSTAR":"0.00002916900000","CLASSIFICATION_TYPE":"U","SITE":"AFETR","TLE_LINE1":"1 48643U 21044F   22052.89696362  .00000153  00000-0  29169-4 0  9996","ARG_OF_PERICENTER":"76.0731","MEAN_ANOMALY":"284.0416","SEMIMAJOR_AXIS":"6925.370","TIME_SYSTEM":"UTC","OBJECT_ID":"2021-044F","LAUNCH_DATE":"2021-05-26","OBJECT_NAME":"STARLINK-2704","REV_AT_EPOCH":"4112","ELEMENT_SET_NO":"999","GP_ID":"196574854"},{"SITE":"AFETR","TLE_LINE1":"1 48644U 21044G   22052.89327820  .00000740  00000-0  68598-4 0  9998","ARG_OF_PERICENTER":"64.1991","EPHEMERIS_TYPE":"0","APOAPSIS":"548.428","NORAD_CAT_ID":"48644","DECAY_DATE":null,"CLASSIFICATION_TYPE":"U","BSTAR":"0.00006859800000","MEAN_MOTION_DDOT":"0.0000000000000","ECCENTRICITY":"0.00017400","OBJECT_TYPE":"PAYLOAD","REF_FRAME":"TEME","PERIAPSIS":"546.018","GP_ID":"196575109","LAUNCH_DATE":"2021-05-26","OBJECT_NAME":"STARLINK-2695","REV_AT_EPOCH":"4112","ELEMENT_SET_NO":"999","MEAN_ANOMALY":"295.9178","SEMIMAJOR_AXIS":"6925.358","OBJECT_ID":"2021-044G","TIME_SYSTEM":"UTC","TLE_LINE2":"2 48644  53.0543 271.2248 0001740  64.1991 295.9178 15.06396999 41122","CENTER_NAME":"EARTH","COUNTRY_CODE":"US","RA_OF_ASC_NODE":"271.2248","MEAN_MOTION_DOT":"0.00000740","INCLINATION":"53.0543","FILE":"3312023","MEAN_ELEMENT_THEORY":"SGP4","EPOCH":"2022-02-21T21:26:19.236480","PERIOD":"95.592","MEAN_MOTION":"15.06396999","RCS_SIZE":"LARGE"},{"ELEMENT_SET_NO":"999","OBJECT_NAME":"STARLINK-2733","REV_AT_EPOCH":"4112","LAUNCH_DATE":"2021-05-26","TIME_SYSTEM":"UTC","OBJECT_ID":"2021-044H","SEMIMAJOR_AXIS":"6925.380","MEAN_ANOMALY":"292.2022","GP_ID":"196573856","ECCENTRICITY":"0.00015740","MEAN_MOTION_DDOT":"0.0000000000000","PERIAPSIS":"546.154","REF_FRAME":"TEME","OBJECT_TYPE":"PAYLOAD","ARG_OF_PERICENTER":"67.9134","SITE":"AFETR","TLE_LINE1":"1 48645U 21044H   22052.88960045  .00000716  00000-0  66950-4 0  9993","BSTAR":"0.00006695000000","CLASSIFICATION_TYPE":"U","NORAD_CAT_ID":"48645","DECAY_DATE":null,"APOAPSIS":"548.335","EPHEMERIS_TYPE":"0","RCS_SIZE":"LARGE","MEAN_MOTION":"15.06389902","EPOCH":"2022-02-21T21:21:01.478880","PERIOD":"95.593","MEAN_MOTION_DOT":"0.00000716","RA_OF_ASC_NODE":"271.2383","MEAN_ELEMENT_THEORY":"SGP4","FILE":"3312023","INCLINATION":"53.0542","COUNTRY_CODE":"US","CENTER_NAME":"EARTH","TLE_LINE2":"2 48645  53.0542 271.2383 0001574  67.9134 292.2022 15.06389902 41121"},{"LAUNCH_DATE":"2021-05-26","REV_AT_EPOCH":"4112","OBJECT_NAME":"STARLINK-2732","ELEMENT_SET_NO":"999","MEAN_ANOMALY":"270.0953","SEMIMAJOR_AXIS":"6925.361","OBJECT_ID":"2021-044J","TIME_SYSTEM":"UTC","GP_ID":"196574105","MEAN_MOTION_DDOT":"0.0000000000000","ECCENTRICITY":"0.00015290","OBJECT_TYPE":"PAYLOAD","REF_FRAME":"TEME","PERIAPSIS":"546.167","SITE":"AFETR","TLE_LINE1":"1 48646U 21044J   22052.88590873  .00000536  00000-0  54855-4 0  9993","ARG_OF_PERICENTER":"90.0212","APOAPSIS":"548.285","EPHEMERIS_TYPE":"0","DECAY_DATE":null,"NORAD_CAT_ID":"48646","BSTAR":"0.00005485500000","CLASSIFICATION_TYPE":"U","RCS_SIZE":"LARGE","EPOCH":"2022-02-21T21:15:42.514272","PERIOD":"95.592","MEAN_MOTION":"15.06395819","RA_OF_ASC_NODE":"271.2363","MEAN_MOTION_DOT":"0.00000536","INCLINATION":"53.0544","FILE":"3312023","MEAN_ELEMENT_THEORY":"SGP4","TLE_LINE2":"2 48646  53.0544 271.2363 0001529  90.0212 270.0953 15.06395819 41127","CENTER_NAME":"EARTH","COUNTRY_CODE":"US"},{"ELEMENT_SET_NO":"999","LAUNCH_DATE":"2021-05-26","OBJECT_NAME":"STARLINK-2691","REV_AT_EPOCH":"4112","SEMIMAJOR_AXIS":"6925.387","OBJECT_ID":"2021-044K","TIME_SYSTEM":"UTC","MEAN_ANOMALY":"277.9660","GP_ID":"196574354","ECCENTRICITY":"0.00014950","MEAN_MOTION_DDOT":"0.0000000000000","PERIAPSIS":"546.216","REF_FRAME":"TEME","OBJECT_TYPE":"PAYLOAD","ARG_OF_PERICENTER":"82.1498","TLE_LINE1":"1 48647U 21044K   22052.88222665 -.00001010  00000-0 -48925-4 0  9996","SITE":"AFETR","DECAY_DATE":null,"NORAD_CAT_ID":"48647","CLASSIFICATION_TYPE":"U","BSTAR":"-0.00004892500000","EPHEMERIS_TYPE":"0","APOAPSIS":"548.287","RCS_SIZE":"LARGE","PERIOD":"95.593","EPOCH":"2022-02-21T21:10:24.382560","MEAN_MOTION":"15.06387547","RA_OF_ASC_NODE":"271.2726","MEAN_MOTION_DOT":"-0.00001010","MEAN_ELEMENT_THEORY":"SGP4","INCLINATION":"53.0550","FILE":"3312023","CENTER_NAME":"EARTH","COUNTRY_CODE":"US","TLE_LINE2":"2 48647  53.0550 271.2726 0001495  82.1498 277.9660 15.06387547 41128"},{"MEAN_ANOMALY":"280.1528","SEMIMAJOR_AXIS":"6925.355","OBJECT_ID":"2021-044L","TIME_SYSTEM":"UTC","LAUNCH_DATE":"2021-05-26","OBJECT_NAME":"STARLINK-2521","REV_AT_EPOCH":"4112","ELEMENT_SET_NO":"999","GP_ID":"196574609","OBJECT_TYPE":"PAYLOAD","REF_FRAME":"TEME","PERIAPSIS":"546.172","MEAN_MOTION_DDOT":"0.0000000000000","ECCENTRICITY":"0.00015130","EPHEMERIS_TYPE":"0","APOAPSIS":"548.268","DECAY_DATE":null,"NORAD_CAT_ID":"48648","CLASSIFICATION_TYPE":"U","BSTAR":"0.00004833200000","SITE":"AFETR","TLE_LINE1":"1 48648U 21044L   22052.88127469  .00000438  00000-0  48332-4 0  9996","ARG_OF_PERICENTER":"79.9631","RCS_SIZE":"LARGE","EPOCH":"2022-02-21T21:09:02.133216","PERIOD":"95.592","MEAN_MOTION":"15.06397922","INCLINATION":"53.0548","FILE":"3312023","MEAN_ELEMENT_THEORY":"SGP4","RA_OF_ASC_NODE":"271.2728","MEAN_MOTION_DOT":"0.00000438","TLE_LINE2":"2 48648  53.0548 271.2728 0001513  79.9631 280.1528 15.06397922 41129","COUNTRY_CODE":"US","CENTER_NAME":"EARTH"}];
